[Satellite]
VERSION=1.1
NAME=EUTELSAT 25B
NICKNAME=EUTELSAT 25B
TLE1=1 39233U 13044A   17186.14226123  .00000138  00000-0  00000-0 0  9998
TLE2=2 39233   0.0441  14.1818 0001476  94.1266 251.7002  1.00272454 13859
